{"type": "FeatureCollection", "features": [ {"type": "Feature", "properties": {"norad_id": 66550, "name": "CZ-7A R/B", "group": "last-30-days", "lat": -4.99897682601487, "lon": -107.78203302290768, "alt_km": 24955.9774530145, "timestamp": "2025-12-08T08:58:59.557182+00:00", "meta": {"OBJECT_NAME": "CZ-7A R/B", "OBJECT_ID": "2025-277B", "EPOCH": "2025-12-06T11:25:58.783584", "MEAN_MOTION": 2.49148263, "ECCENTRICITY": 0.7169465, "INCLINATION": 14.4071, "RA_OF_ASC_NODE": 272.9582, "ARG_OF_PERICENTER": 183.2116, "MEAN_ANOMALY": 166.6906, "EPHEMERIS_TYPE": 0, "CLASSIFICATION_TYPE": "U", "NORAD_CAT_ID": 66550, "ELEMENT_SET_NO": 999, "REV_AT_EPOCH": 18, "BSTAR": 0.0029638743, "MEAN_MOTION_DOT": 0.01473319, "MEAN_MOTION_DDOT": 1.649722e-06}, "tle": {"line1": "1 66550U 25277B   25340.47637481  .01473319  16497-5  29639-2 0  9990", "line2": "2 66550  14.4071 272.9582 7169465 183.2116 166.6906  2.49148263   188"}}, "geometry": {"type": "Point", "coordinates": [-107.78203302290768, -4.99897682601487]}}, {"type": "Feature", "properties": {"norad_id": 66551, "name": "UNKNOWN", "group": "last-30-days", "lat": 34.40710253061762, "lon": -2.5190370887016895, "alt_km": 335.28514061349415, "timestamp": "2025-12-08T08:58:59.557193+00:00", "meta": {"OBJECT_NAME": "UNKNOWN", "OBJECT_ID": "2025-271AE", "EPOCH": "2025-12-02T16:00:03.000096", "MEAN_MOTION": 15.87051116, "ECCENTRICITY": 7.17e-05, "INCLINATION": 53.1571, "RA_OF_ASC_NODE": 236.7807, "ARG_OF_PERICENTER": 110.7411, "MEAN_ANOMALY": 313.9012, "EPHEMERIS_TYPE": 0, "CLASSIFICATION_TYPE": "U", "NORAD_CAT_ID": 66551, "ELEMENT_SET_NO": 999, "REV_AT_EPOCH": 262, "BSTAR": -0.0074303, "MEAN_MOTION_DOT": -0.01709685, "MEAN_MOTION_DDOT": 0}, "tle": {"line1": "1 66551U 25271AE  25336.66670139 -.01709685  00000+0 -74303-2 0  9993", "line2": "2 66551  53.1571 236.7807 0000717 110.7411 313.9012 15.87051116  2624"}}, "geometry": {"type": "Point", "coordinates": [-2.5190370887016895, 34.40710253061762]}}, {"type": "Feature", "properties": {"norad_id": 66554, "name": "GLOBAL-33", "group": "last-30-days", "lat": 41.36744955242157, "lon": 160.1574016689978, "alt_km": 462.9787686356058, "timestamp": "2025-12-08T08:58:59.557203+00:00", "meta": {"OBJECT_NAME": "GLOBAL-33", "OBJECT_ID": "2025-267A", "EPOCH": "2025-12-07T12:17:03.796800", "MEAN_MOTION": 15.3146095, "ECCENTRICITY": 0.00049084, "INCLINATION": 42.0198, "RA_OF_ASC_NODE": 87.1712, "ARG_OF_PERICENTER": 15.3793, "MEAN_ANOMALY": 344.7193, "EPHEMERIS_TYPE": 0, "CLASSIFICATION_TYPE": "U", "NORAD_CAT_ID": 66554, "ELEMENT_SET_NO": 999, "REV_AT_EPOCH": 260, "BSTAR": 0.00066744717, "MEAN_MOTION_DOT": 0.00020529, "MEAN_MOTION_DDOT": 0}, "tle": {"line1": "1 66554U 25267A   25341.51184950  .00020529  00000+0  66745-3 0  9994", "line2": "2 66554  42.0198  87.1712 0004908  15.3793 344.7193 15.31460950  2600"}}, "geometry": {"type": "Point", "coordinates": [160.1574016689978, 41.36744955242157]}}, {"type": "Feature", "properties": {"norad_id": 66555, "name": "ELECTRON KICK STAGE R/B", "group": "last-30-days", "lat": 31.14755836410132, "lon": -140.08591597640694, "alt_km": 464.89759255932313, "timestamp": "2025-12-08T08:58:59.557214+00:00", "meta": {"OBJECT_NAME": "ELECTRON KICK STAGE R/B", "OBJECT_ID": "2025-267B", "EPOCH": "2025-12-07T16:46:50.073888", "MEAN_MOTION": 15.32452848, "ECCENTRICITY": 0.0006974, "INCLINATION": 42.0195, "RA_OF_ASC_NODE": 85.9807, "ARG_OF_PERICENTER": 14.9971, "MEAN_ANOMALY": 345.1072, "EPHEMERIS_TYPE": 0, "CLASSIFICATION_TYPE": "U", "NORAD_CAT_ID": 66555, "ELEMENT_SET_NO": 999, "REV_AT_EPOCH": 263, "BSTAR": 0.0011377492, "MEAN_MOTION_DOT": 0.00036379, "MEAN_MOTION_DDOT": 0}, "tle": {"line1": "1 66555U 25267B   25341.69919067  .00036379  00000+0  11377-2 0  9999", "line2": "2 66555  42.0195  85.9807 0006974  14.9971 345.1072 15.32452848  2639"}}, "geometry": {"type": "Point", "coordinates": [-140.08591597640694, 31.14755836410132]}}, {"type": "Feature", "properties": {"norad_id": 66557, "name": "STARLINK-35699", "group": "last-30-days", "lat": 2.7669139056655094, "lon": -36.23118512910918, "alt_km": 404.07959576195844, "timestamp": "2025-12-08T08:58:59.557227+00:00", "meta": {"OBJECT_NAME": "STARLINK-35699", "OBJECT_ID": "2025-268A", "EPOCH": "2025-12-07T22:00:03.000096", "MEAN_MOTION": 15.56244545, "ECCENTRICITY": 0.00015366, "INCLINATION": 43.0002, "RA_OF_ASC_NODE": 149.4377, "ARG_OF_PERICENTER": 282.5445, "MEAN_ANOMALY": 208.2022, "EPHEMERIS_TYPE": 0, "CLASSIFICATION_TYPE": "U", "NORAD_CAT_ID": 66557, "ELEMENT_SET_NO": 999, "REV_AT_EPOCH": 389, "BSTAR": -0.031042101, "MEAN_MOTION_DOT": -0.02002777, "MEAN_MOTION_DDOT": 0}, "tle": {"line1": "1 66557U 25268A   25341.91670139 -.02002777  00000+0 -31042-1 0  9990", "line2": "2 66557  43.0002 149.4377 0001536 282.5445 208.2022 15.56244545  3897"}}, "geometry": {"type": "Point", "coordinates": [-36.23118512910918, 2.7669139056655094]}}, {"type": "Feature", "properties": {"norad_id": 66558, "name": "STARLINK-35695", "group": "last-30-days", "lat": 1.4605826266566249, "lon": -34.8309055089751, "alt_km": 404.31927007236936, "timestamp": "2025-12-08T08:58:59.557239+00:00", "meta": {"OBJECT_NAME": "STARLINK-35695", "OBJECT_ID": "2025-268B", "EPOCH": "2025-12-07T22:00:03.000096", "MEAN_MOTION": 15.56247032, "ECCENTRICITY": 0.00015235, "INCLINATION": 43.0003, "RA_OF_ASC_NODE": 149.433, "ARG_OF_PERICENTER": 286.9782, "MEAN_ANOMALY": 205.6834, "EPHEMERIS_TYPE": 0, "CLASSIFICATION_TYPE": "U", "NORAD_CAT_ID": 66558, "ELEMENT_SET_NO": 999, "REV_AT_EPOCH": 389, "BSTAR": -0.031081854, "MEAN_MOTION_DOT": -0.02005232, "MEAN_MOTION_DDOT": 0}, "tle": {"line1": "1 66558U 25268B   25341.91670139 -.02005232  00000+0 -31082-1 0  9994", "line2": "2 66558  43.0003 149.4330 0001523 286.9782 205.6834 15.56247032  3892"}}, "geometry": {"type": "Point", "coordinates": [-34.8309055089751, 1.4605826266566249]}}, {"type": "Feature", "properties": {"norad_id": 66559, "name": "STARLINK-35419", "group": "last-30-days", "lat": 0.15897715653329414, "lon": -33.43775187622507, "alt_km": 404.207644017587, "timestamp": "2025-12-08T08:58:59.557249+00:00", "meta": {"OBJECT_NAME": "STARLINK-35419", "OBJECT_ID": "2025-268C", "EPOCH": "2025-12-07T22:00:03.000096", "MEAN_MOTION": 15.56115646, "ECCENTRICITY": 0.0002254, "INCLINATION": 43.0004, "RA_OF_ASC_NODE": 149.4286, "ARG_OF_PERICENTER": 275.0744, "MEAN_ANOMALY": 219.6043, "EPHEMERIS_TYPE": 0, "CLASSIFICATION_TYPE": "U", "NORAD_CAT_ID": 66559, "ELEMENT_SET_NO": 999, "REV_AT_EPOCH": 389, "BSTAR": -0.028928371, "MEAN_MOTION_DOT": -0.01840277, "MEAN_MOTION_DDOT": 0}, "tle": {"line1": "1 66559U 25268C   25341.91670139 -.01840277  00000+0 -28928-1 0  9995", "line2": "2 66559  43.0004 149.4286 0002254 275.0744 219.6043 15.56115646  3895"}}, "geometry": {"type": "Point", "coordinates": [-33.43775187622507, 0.15897715653329414]}}, {"type": "Feature", "properties": {"norad_id": 66560, "name": "STARLINK-35411", "group": "last-30-days", "lat": -1.1530439467559044, "lon": -32.03443960108591, "alt_km": 404.4614071229107, "timestamp": "2025-12-08T08:58:59.557259+00:00", "meta": {"OBJECT_NAME": "STARLINK-35411", "OBJECT_ID": "2025-268D", "EPOCH": "2025-12-07T22:00:03.000096", "MEAN_MOTION": 15.56246753, "ECCENTRICITY": 0.00014812, "INCLINATION": 43.0003, "RA_OF_ASC_NODE": 149.4239, "ARG_OF_PERICENTER": 281.7817, "MEAN_ANOMALY": 214.7191, "EPHEMERIS_TYPE": 0, "CLASSIFICATION_TYPE": "U", "NORAD_CAT_ID": 66560, "ELEMENT_SET_NO": 999, "REV_AT_EPOCH": 389, "BSTAR": -0.031164693, "MEAN_MOTION_DOT": -0.02009971, "MEAN_MOTION_DDOT": 0}, "tle": {"line1": "1 66560U 25268D   25341.91670139 -.02009971  00000+0 -31165-1 0  9993", "line2": "2 66560  43.0003 149.4239 0001481 281.7817 214.7191 15.56246753  3894"}}, "geometry": {"type": "Point", "coordinates": [-32.03443960108591, -1.1530439467559044]}}, {"type": "Feature", "properties": {"norad_id": 66561, "name": "STARLINK-35305", "group": "last-30-days", "lat": -3.7662889776566106, "lon": -29.23091567191413, "alt_km": 404.6992693923421, "timestamp": "2025-12-08T08:58:59.557269+00:00", "meta": {"OBJECT_NAME": "STARLINK-35305", "OBJECT_ID": "2025-268E", "EPOCH": "2025-12-07T22:00:03.000096", "MEAN_MOTION": 15.56244657, "ECCENTRICITY": 0.00013044, "INCLINATION": 42.9999, "RA_OF_ASC_NODE": 149.4141, "ARG_OF_PERICENTER": 282.7767, "MEAN_ANOMALY": 217.5588, "EPHEMERIS_TYPE": 0, "CLASSIFICATION_TYPE": "U", "NORAD_CAT_ID": 66561, "ELEMENT_SET_NO": 999, "REV_AT_EPOCH": 384, "BSTAR": -0.031080792, "MEAN_MOTION_DOT": -0.02004877, "MEAN_MOTION_DDOT": 0}, "tle": {"line1": "1 66561U 25268E   25341.91670139 -.02004877  00000+0 -31081-1 0  9991", "line2": "2 66561  42.9999 149.4141 0001304 282.7767 217.5588 15.56244657  3845"}}, "geometry": {"type": "Point", "coordinates": [-29.23091567191413, -3.7662889776566106]}}, {"type": "Feature", "properties": {"norad_id": 66562, "name": "STARLINK-35579", "group": "last-30-days", "lat": -2.460579335532191, "lon": -30.634175354175227, "alt_km": 404.6056800191018, "timestamp": "2025-12-08T08:58:59.557280+00:00", "meta": {"OBJECT_NAME": "STARLINK-35579", "OBJECT_ID": "2025-268F", "EPOCH": "2025-12-07T22:00:03.000096", "MEAN_MOTION": 15.56244873, "ECCENTRICITY": 0.00014075, "INCLINATION": 43, "RA_OF_ASC_NODE": 149.4187, "ARG_OF_PERICENTER": 283.299, "MEAN_ANOMALY": 215.1196, "EPHEMERIS_TYPE": 0, "CLASSIFICATION_TYPE": "U", "NORAD_CAT_ID": 66562, "ELEMENT_SET_NO": 999, "REV_AT_EPOCH": 389, "BSTAR": -0.031100516, "MEAN_MOTION_DOT": -0.02006094, "MEAN_MOTION_DDOT": 0}, "tle": {"line1": "1 66562U 25268F   25341.91670139 -.02006094  00000+0 -31101-1 0  9998", "line2": "2 66562  43.0000 149.4187 0001407 283.2990 215.1196 15.56244873  3893"}}, "geometry": {"type": "Point", "coordinates": [-30.634175354175227, -2.460579335532191]}}]}